{"type": "FeatureCollection", "features": [ {"type": "Feature", "properties": {"norad_id": 60453, "name": "LEGION 4", "group": "resource", "lat": 35.30852448230429, "lon": 97.38732425293006, "alt_km": 515.8677229489895, "timestamp": "2025-12-10T18:56:59.719887+00:00", "meta": {"OBJECT_NAME": "LEGION 4", "OBJECT_ID": "2024-146B", "EPOCH": "2025-12-10T10:48:03.271104", "MEAN_MOTION": 15.15785732, "ECCENTRICITY": 0.0009683, "INCLINATION": 45.0386, "RA_OF_ASC_NODE": 54.1511, "ARG_OF_PERICENTER": 299.2634, "MEAN_ANOMALY": 60.7277, "EPHEMERIS_TYPE": 0, "CLASSIFICATION_TYPE": "U", "NORAD_CAT_ID": 60453, "ELEMENT_SET_NO": 999, "REV_AT_EPOCH": 7223, "BSTAR": 0.00041941, "MEAN_MOTION_DOT": 7.895e-05, "MEAN_MOTION_DDOT": 0}, "tle": {"line1": "1 60453U 24146B   25344.45003786  .00007895  00000+0  41941-3 0  9996", "line2": "2 60453  45.0386  54.1511 0009683 299.2634  60.7277 15.15785732 72231"}}, "geometry": {"type": "Point", "coordinates": [97.38732425293006, 35.30852448230429]}}, {"type": "Feature", "properties": {"norad_id": 60989, "name": "SENTINEL-2C", "group": "resource", "lat": 43.41444700037859, "lon": 49.09913898524994, "alt_km": 784.8270411382873, "timestamp": "2025-12-10T18:56:59.719899+00:00", "meta": {"OBJECT_NAME": "SENTINEL-2C", "OBJECT_ID": "2024-157A", "EPOCH": "2025-12-10T12:01:53.596992", "MEAN_MOTION": 14.30816245, "ECCENTRICITY": 0.0001201, "INCLINATION": 98.5684, "RA_OF_ASC_NODE": 57.0161, "ARG_OF_PERICENTER": 97.8387, "MEAN_ANOMALY": 262.2932, "EPHEMERIS_TYPE": 0, "CLASSIFICATION_TYPE": "U", "NORAD_CAT_ID": 60989, "ELEMENT_SET_NO": 999, "REV_AT_EPOCH": 6600, "BSTAR": 0.00011211, "MEAN_MOTION_DOT": 2.5e-06, "MEAN_MOTION_DDOT": 0}, "tle": {"line1": "1 60989U 24157A   25344.50131478  .00000250  00000+0  11211-3 0  9993", "line2": "2 60989  98.5684  57.0161 0001201  97.8387 262.2932 14.30816245 66002"}}, "geometry": {"type": "Point", "coordinates": [49.09913898524994, 43.41444700037859]}}, {"type": "Feature", "properties": {"norad_id": 61735, "name": "IONOSFERA-M 1", "group": "resource", "lat": 7.07712139387216, "lon": -146.4418065553198, "alt_km": 817.4099767611615, "timestamp": "2025-12-10T18:56:59.719910+00:00", "meta": {"OBJECT_NAME": "IONOSFERA-M 1", "OBJECT_ID": "2024-199A", "EPOCH": "2025-12-10T13:51:09.925344", "MEAN_MOTION": 14.22713337, "ECCENTRICITY": 0.000106, "INCLINATION": 98.7411, "RA_OF_ASC_NODE": 214.442, "ARG_OF_PERICENTER": 24.7673, "MEAN_ANOMALY": 335.3556, "EPHEMERIS_TYPE": 0, "CLASSIFICATION_TYPE": "U", "NORAD_CAT_ID": 61735, "ELEMENT_SET_NO": 999, "REV_AT_EPOCH": 10088, "BSTAR": 7.622e-05, "MEAN_MOTION_DOT": 1.26e-06, "MEAN_MOTION_DDOT": 0}, "tle": {"line1": "1 61735U 24199A   25344.57719821  .00000126  00000+0  76220-4 0  9994", "line2": "2 61735  98.7411 214.4420 0001060  24.7673 335.3556 14.22713337100887"}}, "geometry": {"type": "Point", "coordinates": [-146.4418065553198, 7.07712139387216]}}, {"type": "Feature", "properties": {"norad_id": 61736, "name": "IONOSFERA-M 2", "group": "resource", "lat": -9.945626093866705, "lon": 33.01937112783411, "alt_km": 820.0461350451224, "timestamp": "2025-12-10T18:56:59.719919+00:00", "meta": {"OBJECT_NAME": "IONOSFERA-M 2", "OBJECT_ID": "2024-199B", "EPOCH": "2025-12-10T12:59:47.287392", "MEAN_MOTION": 14.22715491, "ECCENTRICITY": 0.000159, "INCLINATION": 98.7403, "RA_OF_ASC_NODE": 214.3191, "ARG_OF_PERICENTER": 113.568, "MEAN_ANOMALY": 246.5665, "EPHEMERIS_TYPE": 0, "CLASSIFICATION_TYPE": "U", "NORAD_CAT_ID": 61736, "ELEMENT_SET_NO": 999, "REV_AT_EPOCH": 10400, "BSTAR": 7.271e-05, "MEAN_MOTION_DOT": 1.19e-06, "MEAN_MOTION_DDOT": 0}, "tle": {"line1": "1 61736U 24199B   25344.54151953  .00000119  00000+0  72710-4 0  9990", "line2": "2 61736  98.7403 214.3191 0001590 113.5680 246.5665 14.22715491104001"}}, "geometry": {"type": "Point", "coordinates": [33.01937112783411, -9.945626093866705]}}, {"type": "Feature", "properties": {"norad_id": 63772, "name": "BIOMASS", "group": "resource", "lat": 66.64893828742105, "lon": 150.64147967038738, "alt_km": 661.5954451861444, "timestamp": "2025-12-10T18:56:59.719930+00:00", "meta": {"OBJECT_NAME": "BIOMASS", "OBJECT_ID": "2025-090A", "EPOCH": "2025-12-10T12:05:44.471616", "MEAN_MOTION": 14.67538798, "ECCENTRICITY": 0.00012, "INCLINATION": 98.07, "RA_OF_ASC_NODE": 169.5463, "ARG_OF_PERICENTER": 76.9658, "MEAN_ANOMALY": 283.1681, "EPHEMERIS_TYPE": 0, "CLASSIFICATION_TYPE": "U", "NORAD_CAT_ID": 63772, "ELEMENT_SET_NO": 999, "REV_AT_EPOCH": 3301, "BSTAR": 0.00039748, "MEAN_MOTION_DOT": 2.207e-05, "MEAN_MOTION_DDOT": 0}, "tle": {"line1": "1 63772U 25090A   25344.50398694  .00002207  00000+0  39748-3 0  9997", "line2": "2 63772  98.0700 169.5463 0001200  76.9658 283.1681 14.67538798 33013"}}, "geometry": {"type": "Point", "coordinates": [150.64147967038738, 66.64893828742105]}}, {"type": "Feature", "properties": {"norad_id": 64694, "name": "GOSAT-GW (IBUKI GW)", "group": "resource", "lat": -79.10058432225476, "lon": -32.41716982608738, "alt_km": 677.2007320041103, "timestamp": "2025-12-10T18:56:59.719939+00:00", "meta": {"OBJECT_NAME": "GOSAT-GW (IBUKI GW)", "OBJECT_ID": "2025-141A", "EPOCH": "2025-12-10T16:03:11.957760", "MEAN_MOTION": 14.67563399, "ECCENTRICITY": 0.0001479, "INCLINATION": 98.0424, "RA_OF_ASC_NODE": 280.2191, "ARG_OF_PERICENTER": 82.0451, "MEAN_ANOMALY": 278.0922, "EPHEMERIS_TYPE": 0, "CLASSIFICATION_TYPE": "U", "NORAD_CAT_ID": 64694, "ELEMENT_SET_NO": 999, "REV_AT_EPOCH": 2419, "BSTAR": 0.00041037, "MEAN_MOTION_DOT": 2.281e-05, "MEAN_MOTION_DDOT": 0}, "tle": {"line1": "1 64694U 25141A   25344.66888840  .00002281  00000+0  41037-3 0  9998", "line2": "2 64694  98.0424 280.2191 0001479  82.0451 278.0922 14.67563399 24191"}}, "geometry": {"type": "Point", "coordinates": [-32.41716982608738, -79.10058432225476]}}, {"type": "Feature", "properties": {"norad_id": 64876, "name": "IONOSFERA-M 3", "group": "resource", "lat": -61.96423923485474, "lon": 110.24498325405095, "alt_km": 829.2793860012935, "timestamp": "2025-12-10T18:56:59.719949+00:00", "meta": {"OBJECT_NAME": "IONOSFERA-M 3", "OBJECT_ID": "2025-155A", "EPOCH": "2025-12-10T11:03:07.204320", "MEAN_MOTION": 14.21440116, "ECCENTRICITY": 0.0002286, "INCLINATION": 98.5779, "RA_OF_ASC_NODE": 306.3912, "ARG_OF_PERICENTER": 63.6195, "MEAN_ANOMALY": 296.5217, "EPHEMERIS_TYPE": 0, "CLASSIFICATION_TYPE": "U", "NORAD_CAT_ID": 64876, "ELEMENT_SET_NO": 999, "REV_AT_EPOCH": 1959, "BSTAR": 8.6893e-05, "MEAN_MOTION_DOT": 1.47e-06, "MEAN_MOTION_DDOT": 0}, "tle": {"line1": "1 64876U 25155A   25344.46050005  .00000147  00000+0  86893-4 0  9996", "line2": "2 64876  98.5779 306.3912 0002286  63.6195 296.5217 14.21440116 19590"}}, "geometry": {"type": "Point", "coordinates": [110.24498325405095, -61.96423923485474]}}, {"type": "Feature", "properties": {"norad_id": 64877, "name": "IONOSFERA-M 4", "group": "resource", "lat": 62.47879338189347, "lon": -70.20853213123961, "alt_km": 813.1848183254069, "timestamp": "2025-12-10T18:56:59.719959+00:00", "meta": {"OBJECT_NAME": "IONOSFERA-M 4", "OBJECT_ID": "2025-155B", "EPOCH": "2025-12-10T11:53:37.055328", "MEAN_MOTION": 14.21441267, "ECCENTRICITY": 0.0001641, "INCLINATION": 98.5778, "RA_OF_ASC_NODE": 306.3448, "ARG_OF_PERICENTER": 65.5661, "MEAN_ANOMALY": 294.5687, "EPHEMERIS_TYPE": 0, "CLASSIFICATION_TYPE": "U", "NORAD_CAT_ID": 64877, "ELEMENT_SET_NO": 999, "REV_AT_EPOCH": 1959, "BSTAR": 9.7468e-05, "MEAN_MOTION_DOT": 1.7e-06, "MEAN_MOTION_DDOT": 0}, "tle": {"line1": "1 64877U 25155B   25344.49556777  .00000170  00000+0  97468-4 0  9993", "line2": "2 64877  98.5778 306.3448 0001641  65.5661 294.5687 14.21441267 19594"}}, "geometry": {"type": "Point", "coordinates": [-70.20853213123961, 62.47879338189347]}}, {"type": "Feature", "properties": {"norad_id": 64899, "name": "MICROCARB", "group": "resource", "lat": -43.356427280093115, "lon": -127.46711071098001, "alt_km": 657.7085099916312, "timestamp": "2025-12-10T18:56:59.719969+00:00", "meta": {"OBJECT_NAME": "MICROCARB", "OBJECT_ID": "2025-156A", "EPOCH": "2025-12-10T11:24:43.685568", "MEAN_MOTION": 14.72051397, "ECCENTRICITY": 0.0016994, "INCLINATION": 98.0027, "RA_OF_ASC_NODE": 59.8573, "ARG_OF_PERICENTER": 151.6728, "MEAN_ANOMALY": 208.5407, "EPHEMERIS_TYPE": 0, "CLASSIFICATION_TYPE": "U", "NORAD_CAT_ID": 64899, "ELEMENT_SET_NO": 999, "REV_AT_EPOCH": 2020, "BSTAR": 0.00019897, "MEAN_MOTION_DOT": 1.203e-05, "MEAN_MOTION_DDOT": 0}, "tle": {"line1": "1 64899U 25156A   25344.47550562  .00001203  00000+0  19897-3 0  9999", "line2": "2 64899  98.0027  59.8573 0016994 151.6728 208.5407 14.72051397 20209"}}, "geometry": {"type": "Point", "coordinates": [-127.46711071098001, -43.356427280093115]}}, {"type": "Feature", "properties": {"norad_id": 64900, "name": "CO3D 3", "group": "resource", "lat": -70.88073660180127, "lon": 83.31121403150296, "alt_km": 513.4171199552957, "timestamp": "2025-12-10T18:56:59.719980+00:00", "meta": {"OBJECT_NAME": "CO3D 3", "OBJECT_ID": "2025-156B", "EPOCH": "2025-12-10T11:22:08.728896", "MEAN_MOTION": 15.20207971, "ECCENTRICITY": 0.0001355, "INCLINATION": 97.4339, "RA_OF_ASC_NODE": 60.8733, "ARG_OF_PERICENTER": 100.3816, "MEAN_ANOMALY": 259.7572, "EPHEMERIS_TYPE": 0, "CLASSIFICATION_TYPE": "U", "NORAD_CAT_ID": 64900, "ELEMENT_SET_NO": 999, "REV_AT_EPOCH": 2086, "BSTAR": 0.00071132, "MEAN_MOTION_DOT": 0.00015365, "MEAN_MOTION_DDOT": 0}, "tle": {"line1": "1 64900U 25156B   25344.47371214  .00015365  00000+0  71132-3 0  9991", "line2": "2 64900  97.4339  60.8733 0001355 100.3816 259.7572 15.20207971 20863"}}, "geometry": {"type": "Point", "coordinates": [83.31121403150296, -70.88073660180127]}}]}